QIANFAN-65              
1 62795U 25016L   25355.54413608  .00000157  00000+0  22519-3 0  9998
2 62795  88.9766 102.1496 0012447 321.8548  38.1721 13.50986806 48434
QIANFAN-66              
1 62796U 25016M   25355.57296374  .00000163  00000+0  23419-3 0  9998
2 62796  88.9785 102.1185 0013485 316.4349  43.5736 13.50979640 48482
QIANFAN-67              
1 62797U 25016N   25355.50312463  .00000165  00000+0  23783-3 0  9996
2 62797  88.9776 102.1505 0013571 324.3356  35.6888 13.50983794 48442
QIANFAN-68              
1 62798U 25016P   25355.56886818  .00000163  00000+0  23343-3 0  9993
2 62798  88.9779 102.1891 0013588 322.1725  37.8471 13.50986195 48437
QIANFAN-69              
1 62799U 25016Q   25355.58534257  .00000165  00000+0  23630-3 0  9994
2 62799  88.9758 102.0549 0014355 323.1629  36.8534 13.50988953 48478
QIANFAN-70              
1 62800U 25016R   25355.52776354  .00000165  00000+0  23770-3 0  9992
2 62800  88.9779 102.2012 0013817 312.7650  47.2338 13.50979898 48422
QIANFAN-71              
1 62801U 25016S   25355.52356929  .00000141  00000+0  19926-3 0  9997
2 62801  88.9773 102.1806 0014334 327.2339  32.7922 13.50979375 48425
QIANFAN-72              
1 62802U 25016T   25355.54002321  .00000147  00000+0  20937-3 0  9994
2 62802  88.9763 102.1915 0017753 334.1907  25.8357 13.50986878 48412
